[{"OBJECT_NAME":"STARLINK-31120","OBJECT_ID":"2024-011P","EPOCH":"2026-03-09T05:19:27.537600","MEAN_MOTION":15.30163282,"ECCENTRICITY":8.97e-5,"INCLINATION":53.162,"RA_OF_ASC_NODE":16.1945,"ARG_OF_PERICENTER":88.4258,"MEAN_ANOMALY":271.6845,"EPHEMERIS_TYPE":0,"CLASSIFICATION_TYPE":"U","NORAD_CAT_ID":58778,"ELEMENT_SET_NO":999,"REV_AT_EPOCH":12019,"BSTAR":-0.00011781765,"MEAN_MOTION_DOT":-3.842e-5,"MEAN_MOTION_DDOT":0},{"OBJECT_NAME":"YAOGAN-43 01F","OBJECT_ID":"2024-148F","EPOCH":"2026-03-10T00:23:08.877408","MEAN_MOTION":15.29824616,"ECCENTRICITY":0.00057048,"INCLINATION":34.9925,"RA_OF_ASC_NODE":59.8891,"ARG_OF_PERICENTER":18.4862,"MEAN_ANOMALY":341.6062,"EPHEMERIS_TYPE":0,"CLASSIFICATION_TYPE":"U","NORAD_CAT_ID":60463,"ELEMENT_SET_NO":999,"REV_AT_EPOCH":8707,"BSTAR":0.00058388219,"MEAN_MOTION_DOT":0.00017308,"MEAN_MOTION_DDOT":0}]
